EUTELSAT HOTBIRD 13F    
1 54048U 22134A   26195.06258682  .00000081  00000+0  00000+0 0  9990
2 54048   0.0577 284.3960 0001838  71.1640 331.9173  1.00271968 13648
LDPE-2                  
1 54219U 22144A   26195.68598595  .00000020  00000+0  00000+0 0  9992
2 54219   5.6774  63.4209 0002366 110.0832 234.9426  1.00543616 12119
EUTELSAT HOTBIRD 13G    
1 54225U 22146A   26194.84878138  .00000000  00000+0  00000+0 0  9990
2 54225   0.0146 236.0241 0002418 309.3765  64.8996  1.00268715  7736
ZHONGXING-19            
1 54230U 22148A   26195.80525089  .00000000  00000+0  00000+0 0  9999
2 54230   0.0195  52.4641 0003017  86.9116 246.3700  1.00269263 13651
GALAXY 31 (G-31)        
1 54243U 22153A   26195.67768584  .00000005  00000+0  00000+0 0  9998
2 54243   0.0158  70.0542 0000961  49.7154 295.7132  1.00271000  7409
GALAXY 32 (G-32)        
1 54244U 22153B   26195.82622432 -.00000182  00000+0  00000+0 0  9994
2 54244   0.0085  43.9656 0001402   4.1212  91.0221  1.00269793 13426
EUTELSAT 10B            
1 54259U 22157A   26195.79935507  .00000059  00000+0  00000+0 0  9992
2 54259   0.0594  95.4058 0001500  14.9759 120.0236  1.00268758 13305
GALAXY 35 (G-35)        
1 54741U 22170A   26195.82579098 -.00000170  00000+0  00000+0 0  9991
2 54741   0.0203  75.4606 0001917  41.4513  19.9305  1.00269991 13178
GALAXY 36 (G-36)        
1 54742U 22170B   26195.82648433 -.00000194  00000+0  00000+0 0  9998
2 54742   0.0065 114.0289 0002388 346.8077  40.3734  1.00270252 13055
METEOSAT-12 (MTG-I1)    
1 54743U 22170C   26195.77285397 -.00000017  00000+0  00000+0 0  9993
2 54743   0.7248  19.6446 0003794  82.1207 108.7756  1.00267589 13252
SHIJIAN-23 (SJ-23)      
1 55131U 23002A   26194.77423154 -.00000357  00000+0  00000+0 0  9991
2 55131   3.7833  77.9768 0003432 270.3095 352.1879  1.00077393 12775
APSTAR-6E               
1 55239U 23005A   26195.81576662  .00000000  00000+0  00000+0 0  9996
2 55239   0.0207 271.3385 0002136 293.8948 155.1380  1.00265114 18966
USA 342                 
1 55263U 23008A   26190.28864118  .00000000  00000+0  00000+0 0  9998
2 55263   0.0052 352.2306 0000262   7.3445  55.4773  1.00269378 12734
LDPE-3A                 
1 55264U 23008B   26195.80048420 -.00000304  00000+0  00000+0 0  9990
2 55264   2.4177  81.3211 0001511  78.2871 200.6033  0.99150226 12081
ELEKTRO-L 4             
1 55506U 23016A   26195.72668889 -.00000067  00000+0  00000+0 0  9992
2 55506   0.1214 277.8970 0001499 255.2849 186.8024  1.00270518 12601
AMAZONAS NEXUS          
1 55508U 23017A   26194.76278008 -.00000287  00000+0  00000+0 0  9992
2 55508   0.0356  42.7695 0004364  42.6416  59.8176  1.00268939  7317
ZHONGXING-26            
1 55686U 23023A   26195.79771084 -.00000362  00000+0  00000+0 0  9996
2 55686   0.0620  70.4199 0003051  31.6215 242.8975  1.00268499 12501
LUCH-5X (OLYMP-K 2)     
1 55841U 23031A   26194.71585002  .00000029  00000+0  00000+0 0  9991
2 55841   0.0297  94.8289 0000896 172.1151 344.3269  1.00271441 12200
GAOFEN-13 02            
1 55912U 23036A   26195.78452898 -.00000227  00000+0  00000+0 0  9990
2 55912   1.0277   4.5364 0003717 336.2298  22.5328  1.00274336 12364
SES-18                  
1 55970U 23038A   26195.60988678 -.00000109  00000+0  00000+0 0  9996
2 55970   0.0544 256.5613 0000839 312.6167 199.7602  1.00271598 12375
SES-19                  
1 55971U 23038B   26195.67491250  .00000080  00000+0  00000+0 0  9996
2 55971   0.0104 347.2410 0001480 126.2465 287.1056  1.00269120 12366
INTELSAT 40E (IS-40E)   
1 56174U 23052A   26195.82622432 -.00000183  00000+0  00000+0 0  9998
2 56174   0.0200  82.8388 0002279  63.0894 353.1907  1.00270828 12104
VIASAT-3 F1             
1 56370U 23060A   26195.82648433  .00000000  00000+0  00000+0 0  9991
2 56370   0.0149  26.8771 0000771  79.6667  34.7004  1.00270317 11713
ARCTURUS                
1 56371U 23060B   26195.83497267 -.00000345  00000+0  00000+0 0  9993
2 56371   2.8432  79.5979 0000972 131.5076 120.7774  1.00594850 11732
GS-1                    
1 56372U 23060C   26195.79060414 -.00000232  00000+0  00000+0 0  9994
2 56372   2.7942  79.5062 0003398 281.0800 305.9885  1.00266882  7817
BEIDOU-3 G4             
1 56564U 23066A   26195.80065753 -.00000289  00000+0  00000+0 0  9998
2 56564   0.4609 338.8268 0004887 187.3791 194.7490  1.00272567 11677
ARABSAT-7B (BADR-8)     
1 56757U 23075A   26195.49293264  .00000137  00000+0  00000+0 0  9998
2 56757   0.0743  30.7036 0003416 358.3138 106.7877  1.00271079 11397
NVS-01 (IRNSS-1J)       
1 56759U 23076A   26195.79857752 -.00000345  00000+0  00000+0 0  9994
2 56759   2.1027 243.1010 0003552   7.1122  99.3590  1.00264848 11397
NUSANTARA TIGA (SATRIA) 
1 57045U 23086A   26195.23152285 -.00000241  00000+0  00000+0 0  9997
2 57045   0.0345  12.3074 0002657 332.6277 176.5079  1.00272319 10036
H2SAT (HEINRICH HERTZ)  
1 57213U 23093A   26195.77302730 -.00000007  00000+0  00000+0 0  9993
2 57213   0.0227  98.3117 0000404  50.3367  62.9557  1.00270150 11194
SYRACUSE 4B             
1 57214U 23093B   26194.55973402  .00000000  00000+0  00000+0 0  9991
2 57214   0.0280  56.3015 0000448 204.3313 225.8578  1.00269537  7235
