OBJECT_NAME,OBJECT_ID,EPOCH,MEAN_MOTION,ECCENTRICITY,INCLINATION,RA_OF_ASC_NODE,ARG_OF_PERICENTER,MEAN_ANOMALY,EPHEMERIS_TYPE,CLASSIFICATION_TYPE,NORAD_CAT_ID,ELEMENT_SET_NO,REV_AT_EPOCH,BSTAR,MEAN_MOTION_DOT,MEAN_MOTION_DDOT
EUTELSAT HOTBIRD 13F,2022-134A,2026-07-14T01:30:07.501248,1.00271968,.00018385,0.0577,284.3960,71.1640,331.9173,0,U,54048,999,1364,0,.81E-6,0
LDPE-2,2022-144A,2026-07-14T16:27:49.186080,1.00543616,.00023669,5.6774,63.4209,110.0832,234.9426,0,U,54219,999,1211,0,.2E-6,0
EUTELSAT HOTBIRD 13G,2022-146A,2026-07-13T20:22:14.711232,1.00268715,.00024185,0.0146,236.0241,309.3765,64.8996,0,U,54225,999,773,0,0,0
ZHONGXING-19,2022-148A,2026-07-14T19:19:33.676896,1.00269263,.00030175,0.0195,52.4641,86.9116,246.3700,0,U,54230,999,1365,0,0,0
GALAXY 31 (G-31),2022-153A,2026-07-14T16:15:52.056576,1.00271000,.00009611,0.0158,70.0542,49.7154,295.7132,0,U,54243,999,740,0,.5E-7,0
GALAXY 32 (G-32),2022-153B,2026-07-14T19:49:45.781248,1.00269793,.00014026,0.0085,43.9656,4.1212,91.0221,0,U,54244,999,1342,0,-.182E-5,0
EUTELSAT 10B,2022-157A,2026-07-14T19:11:04.278048,1.00268758,.00015008,0.0594,95.4058,14.9759,120.0236,0,U,54259,999,1330,0,.59E-6,0
GALAXY 35 (G-35),2022-170A,2026-07-14T19:49:08.340672,1.00269991,.00019179,0.0203,75.4606,41.4513,19.9305,0,U,54741,999,1317,0,-.17E-5,0
GALAXY 36 (G-36),2022-170B,2026-07-14T19:50:08.246112,1.00270252,.00023889,0.0065,114.0289,346.8077,40.3734,0,U,54742,999,1305,0,-.194E-5,0
METEOSAT-12 (MTG-I1),2022-170C,2026-07-14T18:32:54.583008,1.00267589,.00037942,0.7248,19.6446,82.1207,108.7756,0,U,54743,999,1325,0,-.17E-6,0
SHIJIAN-23 (SJ-23),2023-002A,2026-07-13T18:34:53.605056,1.00077393,.0003432,3.7833,77.9768,270.3095,352.1879,0,U,55131,999,1277,0,-.357E-5,0
APSTAR-6E,2023-005A,2026-07-14T19:34:42.235968,1.00265114,.00021361,0.0207,271.3385,293.8948,155.1380,0,U,55239,999,1896,0,0,0
USA 342,2023-008A,2026-07-09T06:55:38.597952,1.00269378,.0000262,0.0052,352.2306,7.3445,55.4773,0,U,55263,999,1273,0,0,0
LDPE-3A,2023-008B,2026-07-14T19:12:41.834880,0.99150226,.00015119,2.4177,81.3211,78.2871,200.6033,0,U,55264,999,1208,0,-.304E-5,0
ELEKTRO-L 4,2023-016A,2026-07-14T17:26:25.920096,1.00270518,.00014994,0.1214,277.8970,255.2849,186.8024,0,U,55506,999,1260,0,-.67E-6,0
AMAZONAS NEXUS,2023-017A,2026-07-13T18:18:24.198912,1.00268939,.00043642,0.0356,42.7695,42.6416,59.8176,0,U,55508,999,731,0,-.287E-5,0
ZHONGXING-26,2023-023A,2026-07-14T19:08:42.216576,1.00268499,.00030513,0.0620,70.4199,31.6215,242.8975,0,U,55686,999,1250,0,-.362E-5,0
LUCH-5X (OLYMP-K 2),2023-031A,2026-07-13T17:10:49.441728,1.00271441,.0000896,0.0297,94.8289,172.1151,344.3269,0,U,55841,999,1220,0,.29E-6,0
GAOFEN-13 02,2023-036A,2026-07-14T18:49:43.303872,1.00274336,.00037173,1.0277,4.5364,336.2298,22.5328,0,U,55912,999,1236,0,-.227E-5,0
SES-18,2023-038A,2026-07-14T14:38:14.217792,1.00271598,.00008393,0.0544,256.5613,312.6167,199.7602,0,U,55970,999,1237,0,-.109E-5,0
SES-19,2023-038B,2026-07-14T16:11:52.440000,1.00269120,.00014803,0.0104,347.2410,126.2465,287.1056,0,U,55971,999,1236,0,.8E-6,0
INTELSAT 40E (IS-40E),2023-052A,2026-07-14T19:49:45.781248,1.00270828,.00022797,0.0200,82.8388,63.0894,353.1907,0,U,56174,999,1210,0,-.183E-5,0
VIASAT-3 F1,2023-060A,2026-07-14T19:50:08.246112,1.00270317,.00007716,0.0149,26.8771,79.6667,34.7004,0,U,56370,999,1171,0,0,0
ARCTURUS,2023-060B,2026-07-14T20:02:21.638688,1.00594850,.00009729,2.8432,79.5979,131.5076,120.7774,0,U,56371,999,1173,0,-.345E-5,0
GS-1,2023-060C,2026-07-14T18:58:28.197696,1.00266882,.00033989,2.7942,79.5062,281.0800,305.9885,0,U,56372,999,781,0,-.232E-5,0
BEIDOU-3 G4,2023-066A,2026-07-14T19:12:56.810592,1.00272567,.00048878,0.4609,338.8268,187.3791,194.7490,0,U,56564,999,1167,0,-.289E-5,0
ARABSAT-7B (BADR-8),2023-075A,2026-07-14T11:49:49.380096,1.00271079,.0003416,0.0743,30.7036,358.3138,106.7877,0,U,56757,999,1139,0,.137E-5,0
NVS-01 (IRNSS-1J),2023-076A,2026-07-14T19:09:57.097728,1.00264848,.00035528,2.1027,243.1010,7.1122,99.3590,0,U,56759,999,1139,0,-.345E-5,0
NUSANTARA TIGA (SATRIA),2023-086A,2026-07-14T05:33:23.574240,1.00272319,.00026572,0.0345,12.3074,332.6277,176.5079,0,U,57045,999,1003,0,-.241E-5,0
H2SAT (HEINRICH HERTZ),2023-093A,2026-07-14T18:33:09.558720,1.00270150,.0000404,0.0227,98.3117,50.3367,62.9557,0,U,57213,999,1119,0,-.7E-7,0
SYRACUSE 4B,2023-093B,2026-07-13T13:26:01.019328,1.00269537,.0000448,0.0280,56.3015,204.3313,225.8578,0,U,57214,999,723,0,0,0
